STARLINK-1635           
1 46172U 20057BH  20253.25001157  .00024338  00000-0  23557-3 0  9992
2 46172  53.0001 333.6195 0001216  62.7862 250.0635 15.66296746  1826
STARLINK-1640           
1 46173U 20057BJ  20253.50001157 -.00003709  00000-0 -34699-4 0  9992
2 46173  53.0020 332.7242 0001501  64.1551  58.8581 15.62740782  4129
STARLINK-1641           
1 46174U 20057BK  20253.50001157 -.01063683  00000-0 -14415-1 0  9992
2 46174  52.9999 332.7719 0001611  43.0030  69.1367 15.59597763  4124
FALCON 9 DEB            
1 46175U 20057BL  20253.44149751  .00499880  11608-4  34406-3 0  9992
2 46175  52.9873 328.7953 0065216 123.2989 237.4313 16.10922373  3516
FALCON 9 DEB            
1 46176U 20057BM  20252.69376836  .00619650  11629-4  39244-3 0  9992
2 46176  52.9899 332.6936 0067346 118.7771 242.0049 16.11659453  3395
FALCON 9 DEB            
1 46177U 20057BN  20253.45606368  .01186455  11838-4  43495-3 0  9992
2 46177  52.9899 328.1531 0050075 122.5576 238.0312 16.20461477  3524
FALCON 9 DEB            
1 46178U 20057BP  20253.43475368  .01839457  11972-4  46562-3 0  9999
2 46178  52.9906 328.0102 0038250 118.8901 241.5985 16.25900021  3521
SKYSAT-C17              
1 46179U 20057BQ  20253.45243997  .00006568  00000-0  56780-4 0  9991
2 46179  53.0017 331.8988 0011807  30.1588 330.0106 15.70628662  3062
SKYSAT-C18              
1 46180U 20057BR  20252.60170112  .00029921  11404-4  98933-4 0  9995
2 46180  52.9995 335.0923 0066045 117.4856 243.2902 15.88100276  2976
2020-058A               
1 46232U 20058A   20253.22591189 -.00000074  00000-0  00000+0 0  9992
2 46232  97.5023 300.7399 0016740 202.9560 197.4716 15.23941956  2606
2020-058B               
1 46233U 20058B   20253.23168112  .00001121  00000-0  49108-4 0  9990
2 46233  97.5022 300.7506 0015554 205.6279 239.1018 15.24056233  2598
2020-058C               
1 46234U 20058C   20253.56349589  .00002785  00000-0  11738-3 0  9990
2 46234  97.5019 301.0833 0015582 204.1880 260.1588 15.24083685  2648
SKYSAT-C19              
1 46235U 20057BS  20253.24962567  .00008574  00000-0  58186-4 0  9993
2 46235  53.0003 332.0171 0016585  70.5480 289.7328 15.75841101  3071
FALCON 9 DEB            
1 46236U 20057BT  20253.19713694  .00460922  11590-4  32101-3 0  9990
2 46236  52.9978 330.1560 0070220 122.0280 238.7600 16.10072531  3473
SAOCOM 1B               
1 46265U 20059A   20253.23749802  .00047927  00000-0  54017-2 0  9994
2 46265  97.8803  76.9884 0004501 138.2461 222.0642 14.86393200  1372
GNOMES-1                
1 46266U 20059B   20253.02698488  .00000425  00000-0  52437-4 0  9993
2 46266  97.8851  76.8064 0006554 110.4958 249.7031 14.87885258  1343
TYVAK-0172              
1 46267U 20059C   20253.02529056  .00000559  00000-0  66658-4 0  9996
2 46267  97.8729  76.7954 0007636 115.8953 244.3119 14.88166674  1333
RLFL14                  
1 46268U 20060A   20253.48366862 -.00000171  00000-0  50344-5 0  9990
2 46268  45.1011 281.5400 0013223 318.6273  41.3601 15.09544892  1419
CAPELLA-2               
1 46269U 20060B   20253.22071862  .00000278  00000-0  32692-4 0  9998
2 46269  45.1027 282.9588 0011149 319.5010  40.5040 15.09255259  1372
ELECTRON R/B            
1 46270U 20060C   20253.46731931  .01102823  92618-5  60327-3 0  9992
2 46270  45.0958 276.3120 0211465 312.9485  45.3853 15.85313759  1471
NUSAT-6 (HYPATIA)       
1 46272U 20061A   20253.22055236  .00000348  00000-0  22072-4 0  9999
2 46272  97.4681 326.2049 0006114 197.0317 163.0711 15.15061182   924
ESAIL                   
1 46273U 20061B   20253.22016040  .00000247  00000-0  16656-4 0  9999
2 46273  97.4681 326.2055 0005668 197.4739 162.6299 15.15158091   929
ION-MK01                
1 46274U 20061C   20253.21987932  .00000225  00000-0  15474-4 0  9999
2 46274  97.4682 326.2060 0005312 197.3017 162.8036 15.15227936   927
2020-061D               
1 46275U 20061D   20253.21695119  .00000173  00000-0  12413-4 0  9995
2 46275  97.4642 326.2068 0000764 135.5456 224.5838 15.15957884   927
2020-061E               
1 46276U 20061E   20253.48065608  .00000322  00000-0  20132-4 0  9992
2 46276  97.4643 326.4668 0000453 143.7371 216.3893 15.16035549   969
2020-061F               
1 46277U 20061F   20253.21650221  .00000253  00000-0  16563-4 0  9991
2 46277  97.4642 326.2074 0000282 149.7180 210.4069 15.16069420   923
GHGSAT-C1               
1 46278U 20061G   20253.21553701  .00000393  00000-0  23673-4 0  9992
2 46278  97.4643 326.2086 0001739   9.0512 351.0752 15.16311132   924
STARLINK-1734           
1 46325U 20062A   20253.30208461 -.00643142  11731-4 -36944-3 0  9994
2 46325  52.9928  41.2322 0041584  64.6909 296.0171 16.15945368  2182
STARLINK B              
1 46326U 20062B   20253.66668981 -.01270930  45169-3 -44540-2 0  9994
2 46326  52.9967  40.0967 0041520  68.5742 254.4354 15.87113680  1807
CZ-2F R/B               
1 46390U 20063B   20253.23558603  .00010937  00000-0  67681-4 0  9999
2 46390  50.2045  40.0695 0015807 315.6843  44.2871 15.77518190   780
